ORBCOMM FM06            
1 25118U 97084G   26193.32638547  .00000536  00000+0  18331-3 0  9996
2 25118  45.0142 291.6869 0001341 223.9962 167.8068 14.47623379498034
ORBCOMM FM04            
1 25159U 98007C   26194.87015516  .00000348  00000+0  16467-3 0  9992
2 25159 107.9633 224.3389 0041946 279.1203  80.5193 14.35783109480427
ORBCOMM FM19            
1 25415U 98046C   26194.19180657  .00000467  00000+0  19378-3 0  9990
2 25415  44.9931 119.9461 0003294  49.2638  93.5898 14.39539409460526
ORBCOMM FM20            
1 25416U 98046D   26193.23044279  .00000323  00000+0  15202-3 0  9997
2 25416  44.9931 132.7157 0001680 341.6287  18.4501 14.38097395460392
ORBCOMM FM27            
1 25481U 98053G   26192.48362371  .00000334  00000+0  15260-3 0  9995
2 25481  45.0035 219.9500 0002441 278.1343  81.9229 14.39181226453734
ORBCOMM FM32            
1 25982U 99065C   26193.03773816  .00000318  00000+0  15326-3 0  9992
2 25982  45.0156  55.6091 0005402 176.7380 183.3505 14.37165596390664
ORBCOMM FM109           
1 40086U 14040A   26194.32878598  .00000128  00000+0  63382-4 0  9995
2 40086  47.0045 327.8904 0001579 316.6672  43.4090 14.58871574638160
ORBCOMM FM110           
1 41182U 15081D   26193.51184114  .00000172  00000+0  72512-4 0  9997
2 41182  47.0008 241.6985 0003492 211.7770 148.2905 14.58916062561323
ORBCOMM FM118           
1 41183U 15081E   26194.16260672  .00000078  00000+0  52835-4 0  9995
2 41183  47.0027 238.9585 0002790 176.7782 183.3122 14.58902986561526
ORBCOMM FM112           
1 41184U 15081F   26194.30362165  .00000331  00000+0  10612-3 0  9990
2 41184  46.9979 146.7451 0003802 320.5231  39.5377 14.58937084562760
ORBCOMM FM113           
1 41185U 15081G   26194.76054860  .00000119  00000+0  61437-4 0  9997
2 41185  46.9998 144.9743 0002310 315.9294  44.1408 14.58881189562813
ORBCOMM FM108           
1 41187U 15081J   26194.03772684  .00000292  00000+0  97932-4 0  9991
2 41187  47.0053  59.9728 0002770 314.2400  45.8258 14.58908772563852
ORBCOMM FM117           
1 41188U 15081K   26194.00344233  .00000268  00000+0  93001-4 0  9990
2 41188  47.0016  58.7625 0003198 320.9684  39.0971 14.58895854563895
ORBCOMM FM116           
1 41189U 15081L   26194.25753558  .00000069  00000+0  50849-4 0  9994
2 41189  47.0013 147.3497 0001541 225.9507 134.1252 14.58904456562744
